{
  "type": "FeatureCollection",
  "features": [
    {
      "type": "Feature",
      "properties": {
        "norad_id": 66591,
        "name": "STARLINK-36058",
        "group": "last-30-days",
        "lat": 41.630328402303164,
        "lon": -100.07849955434212,
        "alt_km": 410.4593745371276,
        "timestamp": "2025-12-13T15:35:10.876462+00:00",
        "meta_object_name": "STARLINK-36058",
        "meta_object_id": "2025-270D",
        "meta_epoch": "2025-12-12T20:00:01.999872",
        "meta_mean_motion": 15.50595298,
        "meta_eccentricity": 0.00033107,
        "meta_inclination": 42.9994,
        "meta_ra_of_asc_node": 192.1783,
        "meta_arg_of_pericenter": 269.8851,
        "meta_mean_anomaly": 286.2192,
        "meta_ephemeris_type": 0,
        "meta_classification_type": "U",
        "meta_norad_cat_id": 66591,
        "meta_element_set_no": 999,
        "meta_rev_at_epoch": 441,
        "meta_bstar": 0.00013294324,
        "meta_mean_motion_dot": 7.469e-05,
        "meta_mean_motion_ddot": 0,
        "tle_line1": "1 66591U 25270D   25346.83335648  .00007469  00000+0  13294-3 0  9990",
        "tle_line2": "2 66591  42.9994 192.1783 0003310 269.8851 286.2192 15.50595298  4411"
      },
      "geometry": {
        "type": "Point",
        "coordinates": [
          -100.07849955434212,
          41.630328402303164
        ]
      }
    },
    {
      "type": "Feature",
      "properties": {
        "norad_id": 66592,
        "name": "STARLINK-36066",
        "group": "last-30-days",
        "lat": 38.66627251036767,
        "lon": -113.39621470259758,
        "alt_km": 426.21823420779674,
        "timestamp": "2025-12-13T15:35:10.876472+00:00",
        "meta_object_name": "STARLINK-36066",
        "meta_object_id": "2025-270E",
        "meta_epoch": "2025-12-12T20:00:01.999872",
        "meta_mean_motion": 15.48651574,
        "meta_eccentricity": 0.0001045,
        "meta_inclination": 42.9993,
        "meta_ra_of_asc_node": 192.177,
        "meta_arg_of_pericenter": 261.559,
        "meta_mean_anomaly": 295.1029,
        "meta_ephemeris_type": 0,
        "meta_classification_type": "U",
        "meta_norad_cat_id": 66592,
        "meta_element_set_no": 999,
        "meta_rev_at_epoch": 431,
        "meta_bstar": -0.042843345,
        "meta_mean_motion_dot": -0.02085125,
        "meta_mean_motion_ddot": 0,
        "tle_line1": "1 66592U 25270E   25346.83335648 -.02085125  00000+0 -42843-1 0  9990",
        "tle_line2": "2 66592  42.9993 192.1770 0001045 261.5590 295.1029 15.48651574  4313"
      },
      "geometry": {
        "type": "Point",
        "coordinates": [
          -113.39621470259758,
          38.66627251036767
        ]
      }
    },
    {
      "type": "Feature",
      "properties": {
        "norad_id": 66593,
        "name": "STARLINK-36031",
        "group": "last-30-days",
        "lat": 42.30324339995439,
        "lon": -95.02322015127397,
        "alt_km": 409.52793187348016,
        "timestamp": "2025-12-13T15:35:10.876482+00:00",
        "meta_object_name": "STARLINK-36031",
        "meta_object_id": "2025-270F",
        "meta_epoch": "2025-12-12T20:00:01.999872",
        "meta_mean_motion": 15.50530097,
        "meta_eccentricity": 0.0001754,
        "meta_inclination": 42.9995,
        "meta_ra_of_asc_node": 192.1685,
        "meta_arg_of_pericenter": 276.591,
        "meta_mean_anomaly": 283.5317,
        "meta_ephemeris_type": 0,
        "meta_classification_type": "U",
        "meta_norad_cat_id": 66593,
        "meta_element_set_no": 999,
        "meta_rev_at_epoch": 441,
        "meta_bstar": 0.00011806467,
        "meta_mean_motion_dot": 6.579e-05,
        "meta_mean_motion_ddot": 0,
        "tle_line1": "1 66593U 25270F   25346.83335648  .00006579  00000+0  11806-3 0  9990",
        "tle_line2": "2 66593  42.9995 192.1685 0001754 276.5910 283.5317 15.50530097  4411"
      },
      "geometry": {
        "type": "Point",
        "coordinates": [
          -95.02322015127397,
          42.30324339995439
        ]
      }
    },
    {
      "type": "Feature",
      "properties": {
        "norad_id": 66594,
        "name": "STARLINK-36032",
        "group": "last-30-days",
        "lat": 42.544176946818396,
        "lon": -92.58352246799207,
        "alt_km": 409.7961004857234,
        "timestamp": "2025-12-13T15:35:10.876495+00:00",
        "meta_object_name": "STARLINK-36032",
        "meta_object_id": "2025-270G",
        "meta_epoch": "2025-12-12T20:00:01.999872",
        "meta_mean_motion": 15.50629322,
        "meta_eccentricity": 0.00016597,
        "meta_inclination": 42.9995,
        "meta_ra_of_asc_node": 192.164,
        "meta_arg_of_pericenter": 281.1739,
        "meta_mean_anomaly": 280.7985,
        "meta_ephemeris_type": 0,
        "meta_classification_type": "U",
        "meta_norad_cat_id": 66594,
        "meta_element_set_no": 999,
        "meta_rev_at_epoch": 415,
        "meta_bstar": -0.002190819,
        "meta_mean_motion_dot": -0.00127034,
        "meta_mean_motion_ddot": 0,
        "tle_line1": "1 66594U 25270G   25346.83335648 -.00127034  00000+0 -21908-2 0  9996",
        "tle_line2": "2 66594  42.9995 192.1640 0001659 281.1739 280.7985 15.50629322  4159"
      },
      "geometry": {
        "type": "Point",
        "coordinates": [
          -92.58352246799207,
          42.544176946818396
        ]
      }
    },
    {
      "type": "Feature",
      "properties": {
        "norad_id": 66595,
        "name": "STARLINK-35711",
        "group": "last-30-days",
        "lat": 42.7457339616806,
        "lon": -89.92658081968199,
        "alt_km": 409.2659684049986,
        "timestamp": "2025-12-13T15:35:10.876513+00:00",
        "meta_object_name": "STARLINK-35711",
        "meta_object_id": "2025-270H",
        "meta_epoch": "2025-12-12T20:00:01.999872",
        "meta_mean_motion": 15.5069409,
        "meta_eccentricity": 9.848e-05,
        "meta_inclination": 42.9994,
        "meta_ra_of_asc_node": 192.1593,
        "meta_arg_of_pericenter": 261.4299,
        "meta_mean_anomaly": 302.3488,
        "meta_ephemeris_type": 0,
        "meta_classification_type": "U",
        "meta_norad_cat_id": 66595,
        "meta_element_set_no": 999,
        "meta_rev_at_epoch": 452,
        "meta_bstar": -0.0023548875,
        "meta_mean_motion_dot": -0.00136661,
        "meta_mean_motion_ddot": 0,
        "tle_line1": "1 66595U 25270H   25346.83335648 -.00136661  00000+0 -23549-2 0  9996",
        "tle_line2": "2 66595  42.9994 192.1593 0000984 261.4299 302.3488 15.50694090  4522"
      },
      "geometry": {
        "type": "Point",
        "coordinates": [
          -89.92658081968199,
          42.7457339616806
        ]
      }
    },
    {
      "type": "Feature",
      "properties": {
        "norad_id": 66596,
        "name": "STARLINK-35811",
        "group": "last-30-days",
        "lat": 30.8583854609821,
        "lon": -132.64523776210012,
        "alt_km": 439.3075403365365,
        "timestamp": "2025-12-13T15:35:10.876522+00:00",
        "meta_object_name": "STARLINK-35811",
        "meta_object_id": "2025-270J",
        "meta_epoch": "2025-12-12T20:00:01.999872",
        "meta_mean_motion": 15.44519662,
        "meta_eccentricity": 0.00011603,
        "meta_inclination": 42.9993,
        "meta_ra_of_asc_node": 192.1901,
        "meta_arg_of_pericenter": 265.6197,
        "meta_mean_anomaly": 285.5496,
        "meta_ephemeris_type": 0,
        "meta_classification_type": "U",
        "meta_norad_cat_id": 66596,
        "meta_element_set_no": 999,
        "meta_rev_at_epoch": 452,
        "meta_bstar": -0.048783038,
        "meta_mean_motion_dot": -0.02058537,
        "meta_mean_motion_ddot": 0,
        "tle_line1": "1 66596U 25270J   25346.83335648 -.02058537  00000+0 -48783-1 0  9990",
        "tle_line2": "2 66596  42.9993 192.1901 0001160 265.6197 285.5496 15.44519662  4520"
      },
      "geometry": {
        "type": "Point",
        "coordinates": [
          -132.64523776210012,
          30.8583854609821
        ]
      }
    },
    {
      "type": "Feature",
      "properties": {
        "norad_id": 66597,
        "name": "STARLINK-35820",
        "group": "last-30-days",
        "lat": 42.60629107389845,
        "lon": -91.85066850273262,
        "alt_km": 420.2299248911095,
        "timestamp": "2025-12-13T15:35:10.876534+00:00",
        "meta_object_name": "STARLINK-35820",
        "meta_object_id": "2025-270K",
        "meta_epoch": "2025-12-12T20:00:01.999872",
        "meta_mean_motion": 15.50615245,
        "meta_eccentricity": 0.00013853,
        "meta_inclination": 42.9996,
        "meta_ra_of_asc_node": 192.1488,
        "meta_arg_of_pericenter": 273.4686,
        "meta_mean_anomaly": 294.2494,
        "meta_ephemeris_type": 0,
        "meta_classification_type": "U",
        "meta_norad_cat_id": 66597,
        "meta_element_set_no": 999,
        "meta_rev_at_epoch": 452,
        "meta_bstar": -0.040500454,
        "meta_mean_motion_dot": -0.02111192,
        "meta_mean_motion_ddot": 0,
        "tle_line1": "1 66597U 25270K   25346.83335648 -.02111192  00000+0 -40500-1 0  9997",
        "tle_line2": "2 66597  42.9996 192.1488 0001385 273.4686 294.2494 15.50615245  4529"
      },
      "geometry": {
        "type": "Point",
        "coordinates": [
          -91.85066850273262,
          42.60629107389845
        ]
      }
    }
  ]
}